CENTISPACE-1 OBJECT E   
1 68354U 26060E   26087.93842804  .00000044  00000+0  37340-4 0  9999
2 68354  54.9789   3.0842 0013178 315.9832  44.0118 14.75190984   936
CENTISPACE-1 OBJECT F   
1 68355U 26060F   26087.93828993  .00000037  00000+0  36248-4 0  9991
2 68355  54.9781   3.0819 0013874 315.4672  44.5212 14.75227202   937
CENTISPACE-1 OBJECT G   
1 68356U 26060G   26087.93793949  .00000045  00000+0  37338-4 0  9994
2 68356  54.9926   3.0806 0014052 316.4035  43.5854 14.75313370   931
CENTISPACE-1 OBJECT H   
1 68357U 26060H   26084.61780387  .00000019  00000+0  33492-4 0  9997
2 68357  54.9848  16.6351 0014470 304.4277  55.5354 14.75425125   445
CENTISPACE-1 OBJECT J   
1 68358U 26060J   26084.61779005  .00000017  00000+0  33263-4 0  9997
2 68358  54.9877  16.6351 0013871 306.1411  53.8304 14.75435012   443
CENTISPACE-1 OBJECT K   
1 68359U 26060K   26087.86940483  .00000031  00000+0  35282-4 0  9997
2 68359  54.9801   3.3573 0014665 314.9648  45.0162 14.75497382   927
SUPERVIEW NEO-2 OBJECT A
1 68377U 26062A   26087.10259730  .00001488  00000+0  72014-4 0  9995
2 68377  97.4379  95.5549 0008168 263.6047  96.4258 15.20117201   330
SUPERVIEW NEO-2 OBJECT B
1 68378U 26062B   26086.04924529  .00003139  00000+0  14873-3 0  9996
2 68378  97.4356  94.5245 0010396 272.3840  87.6205 15.20012563   173
CZ-2D R/B               
1 68379U 26062C   26087.93699279  .00007414  00000+0  23923-3 0  9993
2 68379  97.4980  96.2456 0053760  51.0857 309.5160 15.31020475   463
SHIYAN-33               
1 68405U 26064A   26087.92644434  .00006503  00000+0  27404-3 0  9993
2 68405  97.4665 163.8675 0014909 225.4312 134.5709 15.23577189   276
2026-065A               
1 68408U 26065A   26087.94058999  .00001379  00000+0  70532-4 0  9991
2 68408  97.4112 330.1101 0015808 287.1112  72.8390 15.18211376    87
